1 37673U 11024A   13334.55344409  .00000516  00000-0  89473-4 0  9999
2 37673 098.0120 339.6140 0001770 103.2244 008.0430 14.72280195133006
